ONEWEB-0160             
1 48060U 21025U   24044.65482319 -.00000201  00000+0 -58461-3 0  9991
2 48060  87.8998 130.3382 0002833 106.2304 253.9137 13.13470399141388
ONEWEB-0163             
1 48061U 21025V   24045.17377098 -.00000148  00000+0 -44136-3 0  9991
2 48061  87.8994 130.2315 0001476 105.8599 254.2693 13.13471056141587
ONEWEB-0159             
1 48062U 21025W   24045.46736995  .00000111  00000+0  26885-3 0  9998
2 48062  87.8995 130.1582 0001589 111.8870 248.2428 13.13471551141532
ONEWEB-0164             
1 48063U 21025X   24044.76433324  .00000335  00000+0  88178-3 0  9992
2 48063  87.8995 130.3069 0001824  99.2674 260.8661 13.13470042141429
ONEWEB-0167             
1 48064U 21025Y   24045.17457525 -.00000153  00000+0 -45264-3 0  9997
2 48064  87.8996 130.2361 0001595 106.8948 253.2356 13.13469238141465
ONEWEB-0166             
1 48065U 21025Z   24044.73892682 -.00000132  00000+0 -39510-3 0  9990
2 48065  87.8993 130.3102 0001696 113.1208 247.0100 13.13471402141485
ONEWEB-0151             
1 48066U 21025AA  24045.19758255  .00000012  00000+0 -19775-5 0  9998
2 48066  87.8993 130.2297 0001916  98.3105 261.8242 13.13471892141490
ONEWEB-0170             
1 48067U 21025AB  24045.20552523  .00000224  00000+0  57748-3 0  9995
2 48067  87.8995 130.2294 0002308  92.2748 267.8645 13.13471317141442
